start=new Date('2022-11-19T00:00:00.000Z').valueOf();
sats=[{"RCS_SIZE":"LARGE","BSTAR":"0.00053936000000","MEAN_MOTION_DOT":"0.00052838","EPHEMERIS_TYPE":"0","ELEMENT_SET_NO":"999","CLASSIFICATION_TYPE":"U","PERIOD":"92.038","FILE":"3662753","SITE":"AFETR","APOAPSIS":"376.604","OBJECT_ID":"2022-136G","REF_FRAME":"TEME","MEAN_ANOMALY":"268.3115","PERIAPSIS":"372.363","TLE_LINE2":"2 54057  53.2159   3.5822 0003140  62.1858 268.3115 15.64567935  1307","INCLINATION":"53.2159","TIME_SYSTEM":"UTC","ARG_OF_PERICENTER":"62.1858","DECAY_DATE":null,"MEAN_MOTION":"15.64567935","EPOCH":"2022-11-18T22:00:00.999936","GP_ID":"218169102","OBJECT_TYPE":"PAYLOAD","MEAN_MOTION_DDOT":"0.0000000000000","COUNTRY_CODE":"US","TLE_LINE1":"1 54057U 22136G   22322.91667824  .00052838  00000-0  53936-3 0  9994","MEAN_ELEMENT_THEORY":"SGP4","LAUNCH_DATE":"2022-10-20","ECCENTRICITY":"0.00031400","SEMIMAJOR_AXIS":"6752.619","NORAD_CAT_ID":"54057","OBJECT_NAME":"STARLINK-5216","RA_OF_ASC_NODE":"3.5822","REV_AT_EPOCH":"130","CENTER_NAME":"EARTH"},{"MEAN_MOTION_DDOT":"0.0000000000000","OBJECT_TYPE":"PAYLOAD","GP_ID":"218169268","EPOCH":"2022-11-18T22:00:00.999936","MEAN_MOTION":"15.49913386","DECAY_DATE":null,"CENTER_NAME":"EARTH","RA_OF_ASC_NODE":"4.2116","REV_AT_EPOCH":"130","NORAD_CAT_ID":"54058","SEMIMAJOR_AXIS":"6795.116","ECCENTRICITY":"0.00017270","OBJECT_NAME":"STARLINK-5167","LAUNCH_DATE":"2022-10-20","MEAN_ELEMENT_THEORY":"SGP4","TLE_LINE1":"1 54058U 22136H   22322.91667824 -.00064235  00000-0 -11319-2 0  9999","COUNTRY_CODE":"US","APOAPSIS":"418.155","SITE":"AFETR","FILE":"3662753","PERIOD":"92.908","CLASSIFICATION_TYPE":"U","ELEMENT_SET_NO":"999","EPHEMERIS_TYPE":"0","MEAN_MOTION_DOT":"-0.00064235","RCS_SIZE":"LARGE","BSTAR":"-0.00113190000000","ARG_OF_PERICENTER":"44.1438","TIME_SYSTEM":"UTC","INCLINATION":"53.2153","TLE_LINE2":"2 54058  53.2153   4.2116 0001727  44.1438 330.8382 15.49913386  1308","PERIAPSIS":"415.808","MEAN_ANOMALY":"330.8382","REF_FRAME":"TEME","OBJECT_ID":"2022-136H"},{"MEAN_MOTION_DDOT":"0.0000000000000","EPOCH":"2022-11-18T22:00:00.999936","OBJECT_TYPE":"PAYLOAD","GP_ID":"218169753","MEAN_MOTION":"15.49872946","DECAY_DATE":null,"CENTER_NAME":"EARTH","RA_OF_ASC_NODE":"4.2191","REV_AT_EPOCH":"130","SEMIMAJOR_AXIS":"6795.234","NORAD_CAT_ID":"54059","OBJECT_NAME":"STARLINK-5173","ECCENTRICITY":"0.00015160","LAUNCH_DATE":"2022-10-20","MEAN_ELEMENT_THEORY":"SGP4","COUNTRY_CODE":"US","TLE_LINE1":"1 54059U 22136J   22322.91667824  .00034937  00000-0  62101-3 0  9990","APOAPSIS":"418.130","SITE":"AFETR","FILE":"3662753","ELEMENT_SET_NO":"999","CLASSIFICATION_TYPE":"U","PERIOD":"92.911","MEAN_MOTION_DOT":"0.00034937","EPHEMERIS_TYPE":"0","BSTAR":"0.00062101000000","RCS_SIZE":"LARGE","ARG_OF_PERICENTER":"67.0112","INCLINATION":"53.2160","TIME_SYSTEM":"UTC","TLE_LINE2":"2 54059  53.2160   4.2191 0001516  67.0112 305.9806 15.49872946  1309","MEAN_ANOMALY":"305.9806","PERIAPSIS":"416.069","REF_FRAME":"TEME","OBJECT_ID":"2022-136J"},{"MEAN_MOTION_DDOT":"0.0000000000000","EPOCH":"2022-11-18T22:00:00.999936","GP_ID":"218169588","OBJECT_TYPE":"PAYLOAD","MEAN_MOTION":"15.73125993","DECAY_DATE":null,"CENTER_NAME":"EARTH","RA_OF_ASC_NODE":"2.0753","REV_AT_EPOCH":"130","SEMIMAJOR_AXIS":"6728.106","NORAD_CAT_ID":"54060","ECCENTRICITY":"0.00027020","OBJECT_NAME":"STARLINK-5169","LAUNCH_DATE":"2022-10-20","MEAN_ELEMENT_THEORY":"SGP4","COUNTRY_CODE":"US","TLE_LINE1":"1 54060U 22136K   22322.91667824  .00010487  00000-0  79291-4 0  9995","APOAPSIS":"351.789","SITE":"AFETR","FILE":"3662753","CLASSIFICATION_TYPE":"U","ELEMENT_SET_NO":"999","PERIOD":"91.537","EPHEMERIS_TYPE":"0","MEAN_MOTION_DOT":"0.00010487","BSTAR":"0.00007929100000","RCS_SIZE":"LARGE","ARG_OF_PERICENTER":"9.7055","INCLINATION":"53.2153","TIME_SYSTEM":"UTC","TLE_LINE2":"2 54060  53.2153   2.0753 0002702   9.7055 334.7958 15.73125993  1308","MEAN_ANOMALY":"334.7958","PERIAPSIS":"348.153","REF_FRAME":"TEME","OBJECT_ID":"2022-136K"},{"GP_ID":"218168761","OBJECT_TYPE":"PAYLOAD","EPOCH":"2022-11-18T22:00:00.999936","MEAN_MOTION":"15.82659636","DECAY_DATE":null,"MEAN_MOTION_DDOT":"0.0000000000000","LAUNCH_DATE":"2022-10-20","MEAN_ELEMENT_THEORY":"SGP4","TLE_LINE1":"1 54061U 22136L   22322.91667824 -.00457910  00000-0 -22438-2 0  9993","COUNTRY_CODE":"US","CENTER_NAME":"EARTH","RA_OF_ASC_NODE":"0.9534","REV_AT_EPOCH":"130","SEMIMAJOR_AXIS":"6701.060","ECCENTRICITY":"0.00036770","NORAD_CAT_ID":"54061","OBJECT_NAME":"STARLINK-5209","EPHEMERIS_TYPE":"0","MEAN_MOTION_DOT":"-0.00457910","RCS_SIZE":"LARGE","BSTAR":"-0.00224380000000","APOAPSIS":"325.389","SITE":"AFETR","FILE":"3662753","PERIOD":"90.986","ELEMENT_SET_NO":"999","CLASSIFICATION_TYPE":"U","PERIAPSIS":"320.461","MEAN_ANOMALY":"258.5159","REF_FRAME":"TEME","OBJECT_ID":"2022-136L","ARG_OF_PERICENTER":"282.2625","TIME_SYSTEM":"UTC","INCLINATION":"53.2173","TLE_LINE2":"2 54061  53.2173   0.9534 0003677 282.2625 258.5159 15.82659636  1300"},{"EPOCH":"2022-11-18T22:00:00.999936","GP_ID":"218168926","OBJECT_TYPE":"PAYLOAD","MEAN_MOTION":"15.49892888","DECAY_DATE":null,"MEAN_MOTION_DDOT":"0.0000000000000","LAUNCH_DATE":"2022-10-20","MEAN_ELEMENT_THEORY":"SGP4","COUNTRY_CODE":"US","TLE_LINE1":"1 54062U 22136M   22322.91667824  .00014551  00000-0  26378-3 0  9990","CENTER_NAME":"EARTH","RA_OF_ASC_NODE":"4.2104","REV_AT_EPOCH":"130","SEMIMAJOR_AXIS":"6795.176","NORAD_CAT_ID":"54062","ECCENTRICITY":"0.00013630","OBJECT_NAME":"STARLINK-5170","EPHEMERIS_TYPE":"0","MEAN_MOTION_DOT":"0.00014551","BSTAR":"0.00026378000000","RCS_SIZE":"LARGE","APOAPSIS":"417.967","SITE":"AFETR","FILE":"3662753","CLASSIFICATION_TYPE":"U","ELEMENT_SET_NO":"999","PERIOD":"92.910","MEAN_ANOMALY":"267.5307","PERIAPSIS":"416.115","REF_FRAME":"TEME","OBJECT_ID":"2022-136M","ARG_OF_PERICENTER":"109.7931","INCLINATION":"53.2162","TIME_SYSTEM":"UTC","TLE_LINE2":"2 54062  53.2162   4.2104 0001363 109.7931 267.5307 15.49892888  1308"},{"PERIAPSIS":"415.599","MEAN_ANOMALY":"333.7957","REF_FRAME":"TEME","OBJECT_ID":"2022-136N","ARG_OF_PERICENTER":"45.3730","TIME_SYSTEM":"UTC","INCLINATION":"53.2157","TLE_LINE2":"2 54063  53.2157   4.2050 0002178  45.3730 333.7957 15.49879976  1300","MEAN_MOTION_DOT":"0.00035485","EPHEMERIS_TYPE":"0","RCS_SIZE":"LARGE","BSTAR":"0.00063041000000","APOAPSIS":"418.559","SITE":"AFETR","FILE":"3662753","PERIOD":"92.910","CLASSIFICATION_TYPE":"U","ELEMENT_SET_NO":"999","LAUNCH_DATE":"2022-10-20","MEAN_ELEMENT_THEORY":"SGP4","TLE_LINE1":"1 54063U 22136N   22322.91667824  .00035485  00000-0  63041-3 0  9998","COUNTRY_CODE":"US","CENTER_NAME":"EARTH","RA_OF_ASC_NODE":"4.2050","REV_AT_EPOCH":"130","SEMIMAJOR_AXIS":"6795.214","NORAD_CAT_ID":"54063","ECCENTRICITY":"0.00021780","OBJECT_NAME":"STARLINK-5225","OBJECT_TYPE":"PAYLOAD","GP_ID":"218169434","EPOCH":"2022-11-18T22:00:00.999936","MEAN_MOTION":"15.49879976","DECAY_DATE":null,"MEAN_MOTION_DDOT":"0.0000000000000"},{"SEMIMAJOR_AXIS":"6727.897","NORAD_CAT_ID":"54064","ECCENTRICITY":"0.00041460","OBJECT_NAME":"STARLINK-5172","CENTER_NAME":"EARTH","REV_AT_EPOCH":"130","RA_OF_ASC_NODE":"2.8175","MEAN_ELEMENT_THEORY":"SGP4","TLE_LINE1":"1 54064U 22136P   22322.91667824  .00013142  00000-0  97896-4 0  9991","COUNTRY_CODE":"US","LAUNCH_DATE":"2022-10-20","MEAN_MOTION_DDOT":"0.0000000000000","MEAN_MOTION":"15.73199353","DECAY_DATE":null,"OBJECT_TYPE":"PAYLOAD","GP_ID":"218169908","EPOCH":"2022-11-18T22:00:00.999936","TIME_SYSTEM":"UTC","INCLINATION":"53.2140","TLE_LINE2":"2 54064  53.2140   2.8175 0004146   3.8105 339.4329 15.73199353  1304","ARG_OF_PERICENTER":"3.8105","OBJECT_ID":"2022-136P","PERIAPSIS":"346.973","MEAN_ANOMALY":"339.4329","REF_FRAME":"TEME","FILE":"3662753","PERIOD":"91.533","CLASSIFICATION_TYPE":"U","ELEMENT_SET_NO":"999","APOAPSIS":"352.551","SITE":"AFETR","BSTAR":"0.00009789600000","RCS_SIZE":"LARGE","EPHEMERIS_TYPE":"0","MEAN_MOTION_DOT":"0.00013142"},{"FILE":"3662753","CLASSIFICATION_TYPE":"U","ELEMENT_SET_NO":"999","PERIOD":"92.912","APOAPSIS":"418.292","SITE":"AFETR","RCS_SIZE":"LARGE","BSTAR":"0.00062566000000","MEAN_MOTION_DOT":"0.00035186","EPHEMERIS_TYPE":"0","INCLINATION":"53.2161","TIME_SYSTEM":"UTC","TLE_LINE2":"2 54065  53.2161   4.1989 0001697  30.0045 352.8860 15.49859294  1308","ARG_OF_PERICENTER":"30.0045","OBJECT_ID":"2022-136Q","MEAN_ANOMALY":"352.8860","PERIAPSIS":"415.986","REF_FRAME":"TEME","MEAN_MOTION_DDOT":"0.0000000000000","MEAN_MOTION":"15.49859294","DECAY_DATE":null,"EPOCH":"2022-11-18T22:00:00.999936","GP_ID":"218169103","OBJECT_TYPE":"PAYLOAD","SEMIMAJOR_AXIS":"6795.274","ECCENTRICITY":"0.00016970","NORAD_CAT_ID":"54065","OBJECT_NAME":"STARLINK-5187","CENTER_NAME":"EARTH","RA_OF_ASC_NODE":"4.1989","REV_AT_EPOCH":"130","MEAN_ELEMENT_THEORY":"SGP4","COUNTRY_CODE":"US","TLE_LINE1":"1 54065U 22136Q   22322.91667824  .00035186  00000-0  62566-3 0  9999","LAUNCH_DATE":"2022-10-20"},{"MEAN_MOTION":"15.49848122","DECAY_DATE":null,"EPOCH":"2022-11-18T22:00:00.999936","OBJECT_TYPE":"PAYLOAD","GP_ID":"218169269","MEAN_MOTION_DDOT":"0.0000000000000","MEAN_ELEMENT_THEORY":"SGP4","COUNTRY_CODE":"US","TLE_LINE1":"1 54066U 22136R   22322.91667824  .00031026  00000-0  55313-3 0  9991","LAUNCH_DATE":"2022-10-20","SEMIMAJOR_AXIS":"6795.307","ECCENTRICITY":"0.00019920","NORAD_CAT_ID":"54066","OBJECT_NAME":"STARLINK-5151","CENTER_NAME":"EARTH","REV_AT_EPOCH":"130","RA_OF_ASC_NODE":"4.2027","BSTAR":"0.00055313000000","RCS_SIZE":"LARGE","MEAN_MOTION_DOT":"0.00031026","EPHEMERIS_TYPE":"0","FILE":"3662753","ELEMENT_SET_NO":"999","CLASSIFICATION_TYPE":"U","PERIOD":"92.912","APOAPSIS":"418.526","SITE":"AFETR","OBJECT_ID":"2022-136R","MEAN_ANOMALY":"343.2212","PERIAPSIS":"415.818","REF_FRAME":"TEME","INCLINATION":"53.2159","TIME_SYSTEM":"UTC","TLE_LINE2":"2 54066  53.2159   4.2027 0001992  37.8669 343.2212 15.49848122  1308","ARG_OF_PERICENTER":"37.8669"}];
